CCSDS_OMM_VERS = 2.0
CREATION_DATE  = 
ORIGINATOR     = 

OBJECT_NAME    = STARLINK-35915
OBJECT_ID      = 2025-265F
CENTER_NAME    = EARTH
REF_FRAME      = TEME
TIME_SYSTEM    = UTC
MEAN_ELEMENT_THEORY = SGP/SGP4

EPOCH          = 2025-12-01T20:00:01.999008
MEAN_MOTION    = 15.74984864
ECCENTRICITY   = .0001735
INCLINATION    = 42.9995
RA_OF_ASC_NODE = 118.9228
ARG_OF_PERICENTER = 296.2342
MEAN_ANOMALY   = 352.0111

EPHEMERIS_TYPE = 0
CLASSIFICATION_TYPE = U
NORAD_CAT_ID   = 66521
ELEMENT_SET_NO = 999
REV_AT_EPOCH   = 324
BSTAR          = .71015E-3
MEAN_MOTION_DOT = .109778E-2
MEAN_MOTION_DDOT = 0

CCSDS_OMM_VERS = 2.0
CREATION_DATE  = 
ORIGINATOR     = 

OBJECT_NAME    = STARLINK-35946
OBJECT_ID      = 2025-265G
CENTER_NAME    = EARTH
REF_FRAME      = TEME
TIME_SYSTEM    = UTC
MEAN_ELEMENT_THEORY = SGP/SGP4

EPOCH          = 2025-12-01T20:00:01.999008
MEAN_MOTION    = 15.75000937
ECCENTRICITY   = .0001634
INCLINATION    = 42.9996
RA_OF_ASC_NODE = 118.9185
ARG_OF_PERICENTER = 272.4684
MEAN_ANOMALY   = 17.6940

EPHEMERIS_TYPE = 0
CLASSIFICATION_TYPE = U
NORAD_CAT_ID   = 66522
ELEMENT_SET_NO = 999
REV_AT_EPOCH   = 324
BSTAR          = .57135E-3
MEAN_MOTION_DOT = .8806E-3
MEAN_MOTION_DDOT = 0

CCSDS_OMM_VERS = 2.0
CREATION_DATE  = 
ORIGINATOR     = 

OBJECT_NAME    = STARLINK-35969
OBJECT_ID      = 2025-265H
CENTER_NAME    = EARTH
REF_FRAME      = TEME
TIME_SYSTEM    = UTC
MEAN_ELEMENT_THEORY = SGP/SGP4

EPOCH          = 2025-12-01T20:00:01.999008
MEAN_MOTION    = 15.75044237
ECCENTRICITY   = .0001551
INCLINATION    = 42.9996
RA_OF_ASC_NODE = 118.9134
ARG_OF_PERICENTER = 267.7171
MEAN_ANOMALY   = 24.3558

EPHEMERIS_TYPE = 0
CLASSIFICATION_TYPE = U
NORAD_CAT_ID   = 66523
ELEMENT_SET_NO = 999
REV_AT_EPOCH   = 324
BSTAR          = -.34069E-3
MEAN_MOTION_DOT = -.52497E-3
MEAN_MOTION_DDOT = 0

CCSDS_OMM_VERS = 2.0
CREATION_DATE  = 
ORIGINATOR     = 

OBJECT_NAME    = STARLINK-35687
OBJECT_ID      = 2025-265J
CENTER_NAME    = EARTH
REF_FRAME      = TEME
TIME_SYSTEM    = UTC
MEAN_ELEMENT_THEORY = SGP/SGP4

EPOCH          = 2025-12-01T20:00:01.999008
MEAN_MOTION    = 15.75017514
ECCENTRICITY   = .0001962
INCLINATION    = 42.9994
RA_OF_ASC_NODE = 118.9083
ARG_OF_PERICENTER = 282.4589
MEAN_ANOMALY   = 11.5268

EPHEMERIS_TYPE = 0
CLASSIFICATION_TYPE = U
NORAD_CAT_ID   = 66524
ELEMENT_SET_NO = 999
REV_AT_EPOCH   = 324
BSTAR          = .32089E-3
MEAN_MOTION_DOT = .49056E-3
MEAN_MOTION_DDOT = 0

CCSDS_OMM_VERS = 2.0
CREATION_DATE  = 
ORIGINATOR     = 

OBJECT_NAME    = STARLINK-35975
OBJECT_ID      = 2025-265K
CENTER_NAME    = EARTH
REF_FRAME      = TEME
TIME_SYSTEM    = UTC
MEAN_ELEMENT_THEORY = SGP/SGP4

EPOCH          = 2025-12-01T20:00:01.999008
MEAN_MOTION    = 15.75045387
ECCENTRICITY   = .0001768
INCLINATION    = 42.9996
RA_OF_ASC_NODE = 118.9036
ARG_OF_PERICENTER = 277.0397
MEAN_ANOMALY   = 18.8641

EPHEMERIS_TYPE = 0
CLASSIFICATION_TYPE = U
NORAD_CAT_ID   = 66525
ELEMENT_SET_NO = 999
REV_AT_EPOCH   = 324
BSTAR          = -.23557E-3
MEAN_MOTION_DOT = -.36519E-3
MEAN_MOTION_DDOT = 0

CCSDS_OMM_VERS = 2.0
CREATION_DATE  = 
ORIGINATOR     = 

OBJECT_NAME    = STARLINK-35932
OBJECT_ID      = 2025-265L
CENTER_NAME    = EARTH
REF_FRAME      = TEME
TIME_SYSTEM    = UTC
MEAN_ELEMENT_THEORY = SGP/SGP4

EPOCH          = 2025-12-01T20:00:01.999008
MEAN_MOTION    = 15.75015341
ECCENTRICITY   = .0001291
INCLINATION    = 42.9995
RA_OF_ASC_NODE = 118.8989
ARG_OF_PERICENTER = 280.3525
MEAN_ANOMALY   = 17.4693

EPHEMERIS_TYPE = 0
CLASSIFICATION_TYPE = U
NORAD_CAT_ID   = 66526
ELEMENT_SET_NO = 999
REV_AT_EPOCH   = 313
BSTAR          = .38204E-3
MEAN_MOTION_DOT = .58553E-3
MEAN_MOTION_DDOT = 0

CCSDS_OMM_VERS = 2.0
CREATION_DATE  = 
ORIGINATOR     = 

OBJECT_NAME    = STARLINK-35935
OBJECT_ID      = 2025-265M
CENTER_NAME    = EARTH
REF_FRAME      = TEME
TIME_SYSTEM    = UTC
MEAN_ELEMENT_THEORY = SGP/SGP4

EPOCH          = 2025-12-01T20:00:01.999008
MEAN_MOTION    = 15.75072293
ECCENTRICITY   = .0001986
INCLINATION    = 42.9996
RA_OF_ASC_NODE = 118.8948
ARG_OF_PERICENTER = 274.1369
MEAN_ANOMALY   = 25.5621

EPHEMERIS_TYPE = 0
CLASSIFICATION_TYPE = U
NORAD_CAT_ID   = 66527
ELEMENT_SET_NO = 999
REV_AT_EPOCH   = 324
BSTAR          = -.36548E-3
MEAN_MOTION_DOT = -.5633E-3
MEAN_MOTION_DDOT = 0

CCSDS_OMM_VERS = 2.0
CREATION_DATE  = 
ORIGINATOR     = 

OBJECT_NAME    = STARLINK-35928
OBJECT_ID      = 2025-265N
CENTER_NAME    = EARTH
REF_FRAME      = TEME
TIME_SYSTEM    = UTC
MEAN_ELEMENT_THEORY = SGP/SGP4

EPOCH          = 2025-12-01T20:00:01.999008
MEAN_MOTION    = 15.75021307
ECCENTRICITY   = .0001739
INCLINATION    = 42.9995
RA_OF_ASC_NODE = 118.8895
ARG_OF_PERICENTER = 272.8373
MEAN_ANOMALY   = 28.8198

EPHEMERIS_TYPE = 0
CLASSIFICATION_TYPE = U
NORAD_CAT_ID   = 66528
ELEMENT_SET_NO = 999
REV_AT_EPOCH   = 324
BSTAR          = .2208E-3
MEAN_MOTION_DOT = .33548E-3
MEAN_MOTION_DDOT = 0

CCSDS_OMM_VERS = 2.0
CREATION_DATE  = 
ORIGINATOR     = 

OBJECT_NAME    = STARLINK-35933
OBJECT_ID      = 2025-265P
CENTER_NAME    = EARTH
REF_FRAME      = TEME
TIME_SYSTEM    = UTC
MEAN_ELEMENT_THEORY = SGP/SGP4

EPOCH          = 2025-12-01T20:00:01.999008
MEAN_MOTION    = 15.75036766
ECCENTRICITY   = .0001724
INCLINATION    = 42.9996
RA_OF_ASC_NODE = 118.8845
ARG_OF_PERICENTER = 297.4204
MEAN_ANOMALY   = 6.1179

EPHEMERIS_TYPE = 0
CLASSIFICATION_TYPE = U
NORAD_CAT_ID   = 66529
ELEMENT_SET_NO = 999
REV_AT_EPOCH   = 324
BSTAR          = .36118E-3
MEAN_MOTION_DOT = .55363E-3
MEAN_MOTION_DDOT = 0

CCSDS_OMM_VERS = 2.0
CREATION_DATE  = 
ORIGINATOR     = 

OBJECT_NAME    = STARLINK-35961
OBJECT_ID      = 2025-265Q
CENTER_NAME    = EARTH
REF_FRAME      = TEME
TIME_SYSTEM    = UTC
MEAN_ELEMENT_THEORY = SGP/SGP4

EPOCH          = 2025-12-01T20:00:01.999008
MEAN_MOTION    = 15.75032095
ECCENTRICITY   = .0001625
INCLINATION    = 42.9996
RA_OF_ASC_NODE = 118.8797
ARG_OF_PERICENTER = 294.6610
MEAN_ANOMALY   = 10.8125

EPHEMERIS_TYPE = 0
CLASSIFICATION_TYPE = U
NORAD_CAT_ID   = 66530
ELEMENT_SET_NO = 999
REV_AT_EPOCH   = 324
BSTAR          = .27854E-3
MEAN_MOTION_DOT = .42511E-3
MEAN_MOTION_DDOT = 0

CCSDS_OMM_VERS = 2.0
CREATION_DATE  = 
ORIGINATOR     = 

OBJECT_NAME    = STARLINK-35960
OBJECT_ID      = 2025-265R
CENTER_NAME    = EARTH
REF_FRAME      = TEME
TIME_SYSTEM    = UTC
MEAN_ELEMENT_THEORY = SGP/SGP4

EPOCH          = 2025-12-01T20:00:01.999008
MEAN_MOTION    = 15.75074360
ECCENTRICITY   = .0002012
INCLINATION    = 42.9996
RA_OF_ASC_NODE = 118.8749
ARG_OF_PERICENTER = 278.9160
MEAN_ANOMALY   = 28.4584

EPHEMERIS_TYPE = 0
CLASSIFICATION_TYPE = U
NORAD_CAT_ID   = 66531
ELEMENT_SET_NO = 999
REV_AT_EPOCH   = 324
BSTAR          = -.44578E-3
MEAN_MOTION_DOT = -.6851E-3
MEAN_MOTION_DDOT = 0

CCSDS_OMM_VERS = 2.0
CREATION_DATE  = 
ORIGINATOR     = 

OBJECT_NAME    = STARLINK-35914
OBJECT_ID      = 2025-265S
CENTER_NAME    = EARTH
REF_FRAME      = TEME
TIME_SYSTEM    = UTC
MEAN_ELEMENT_THEORY = SGP/SGP4

EPOCH          = 2025-12-01T20:00:01.999008
MEAN_MOTION    = 15.75017507
ECCENTRICITY   = .0001537
INCLINATION    = 42.9993
RA_OF_ASC_NODE = 118.8702
ARG_OF_PERICENTER = 265.5784
MEAN_ANOMALY   = 43.6933

EPHEMERIS_TYPE = 0
CLASSIFICATION_TYPE = U
NORAD_CAT_ID   = 66532
ELEMENT_SET_NO = 999
REV_AT_EPOCH   = 324
BSTAR          = .70008E-3
MEAN_MOTION_DOT = .108349E-2
MEAN_MOTION_DDOT = 0

