STARLINK-35915          
1 66521U 25265F   25335.83335647  .00109778  00000+0  71015-3 0  9995
2 66521  42.9995 118.9228 0001735 296.2342 352.0111 15.74984864  3243
STARLINK-35946          
1 66522U 25265G   25335.83335647  .00088060  00000+0  57135-3 0  9993
2 66522  42.9996 118.9185 0001634 272.4684  17.6940 15.75000937  3245
STARLINK-35969          
1 66523U 25265H   25335.83335647 -.00052497  00000+0 -34069-3 0  9992
2 66523  42.9996 118.9134 0001551 267.7171  24.3558 15.75044237  3247
STARLINK-35687          
1 66524U 25265J   25335.83335647  .00049056  00000+0  32089-3 0  9998
2 66524  42.9994 118.9083 0001962 282.4589  11.5268 15.75017514  3246
STARLINK-35975          
1 66525U 25265K   25335.83335647 -.00036519  00000+0 -23557-3 0  9991
2 66525  42.9996 118.9036 0001768 277.0397  18.8641 15.75045387  3242
STARLINK-35932          
1 66526U 25265L   25335.83335647  .00058553  00000+0  38204-3 0  9997
2 66526  42.9995 118.8989 0001291 280.3525  17.4693 15.75015341  3136
STARLINK-35935          
1 66527U 25265M   25335.83335647 -.00056330  00000+0 -36548-3 0  9990
2 66527  42.9996 118.8948 0001986 274.1369  25.5621 15.75072293  3243
STARLINK-35928          
1 66528U 25265N   25335.83335647  .00033548  00000+0  22080-3 0  9991
2 66528  42.9995 118.8895 0001739 272.8373  28.8198 15.75021307  3245
STARLINK-35933          
1 66529U 25265P   25335.83335647  .00055363  00000+0  36118-3 0  9998
2 66529  42.9996 118.8845 0001724 297.4204   6.1179 15.75036766  3245
STARLINK-35961          
1 66530U 25265Q   25335.83335647  .00042511  00000+0  27854-3 0  9998
2 66530  42.9996 118.8797 0001625 294.6610  10.8125 15.75032095  3247
STARLINK-35960          
1 66531U 25265R   25335.83335647 -.00068510  00000+0 -44578-3 0  9990
2 66531  42.9996 118.8749 0002012 278.9160  28.4584 15.75074360  3246
STARLINK-35914          
1 66532U 25265S   25335.83335647  .00108349  00000+0  70008-3 0  9991
2 66532  42.9993 118.8702 0001537 265.5784  43.6933 15.75017507  3245
